{"type": "FeatureCollection", "features": [ {"type": "Feature", "properties": {"norad_id": 33939, "name": "COSMOS 2251 DEB", "group": "cosmos-2251-debris", "lat": 24.58499707378171, "lon": -132.7214780721854, "alt_km": 566.2468029806168, "timestamp": "2025-12-25T09:48:52.682273+00:00", "meta": {"OBJECT_NAME": "COSMOS 2251 DEB", "OBJECT_ID": "1993-036EU", "EPOCH": "2025-12-24T12:19:51.320352", "MEAN_MOTION": 15.00680764, "ECCENTRICITY": 0.00049376, "INCLINATION": 74.0056, "RA_OF_ASC_NODE": 56.6432, "ARG_OF_PERICENTER": 16.2859, "MEAN_ANOMALY": 343.8486, "EPHEMERIS_TYPE": 0, "CLASSIFICATION_TYPE": "U", "NORAD_CAT_ID": 33939, "ELEMENT_SET_NO": 999, "REV_AT_EPOCH": 88929, "BSTAR": 0.0029907865, "MEAN_MOTION_DOT": 0.00038049, "MEAN_MOTION_DDOT": 0}, "tle": {"line1": "1 33939U 93036EU  25358.51378843  .00038049  00000+0  29908-2 0  9993", "line2": "2 33939  74.0056  56.6432 0004937  16.2859 343.8486 15.00680764889290"}}, "geometry": {"type": "Point", "coordinates": [-132.7214780721854, 24.58499707378171]}}, {"type": "Feature", "properties": {"norad_id": 33940, "name": "COSMOS 2251 DEB", "group": "cosmos-2251-debris", "lat": -14.412690432855221, "lon": -56.40921577440656, "alt_km": 693.4420444897114, "timestamp": "2025-12-25T09:48:52.682282+00:00", "meta": {"OBJECT_NAME": "COSMOS 2251 DEB", "OBJECT_ID": "1993-036EV", "EPOCH": "2025-12-24T18:48:36.483840", "MEAN_MOTION": 14.58907475, "ECCENTRICITY": 0.00107123, "INCLINATION": 74.04, "RA_OF_ASC_NODE": 120.5632, "ARG_OF_PERICENTER": 201.3982, "MEAN_ANOMALY": 311.3169, "EPHEMERIS_TYPE": 0, "CLASSIFICATION_TYPE": "U", "NORAD_CAT_ID": 33940, "ELEMENT_SET_NO": 999, "REV_AT_EPOCH": 88769, "BSTAR": 0.0011497519, "MEAN_MOTION_DOT": 5.367e-05, "MEAN_MOTION_DDOT": 0}, "tle": {"line1": "1 33940U 93036EV  25358.78375560  .00005367  00000+0  11498-2 0  9999", "line2": "2 33940  74.0400 120.5632 0010712 201.3982 311.3169 14.58907475887693"}}, "geometry": {"type": "Point", "coordinates": [-56.40921577440656, -14.412690432855221]}}, {"type": "Feature", "properties": {"norad_id": 33942, "name": "COSMOS 2251 DEB", "group": "cosmos-2251-debris", "lat": 17.358550715948283, "lon": 66.36331225779878, "alt_km": 779.8787380392487, "timestamp": "2025-12-25T09:48:52.682292+00:00", "meta": {"OBJECT_NAME": "COSMOS 2251 DEB", "OBJECT_ID": "1993-036EX", "EPOCH": "2025-12-25T03:05:19.738752", "MEAN_MOTION": 14.38004818, "ECCENTRICITY": 0.0020816, "INCLINATION": 74.0361, "RA_OF_ASC_NODE": 252.0128, "ARG_OF_PERICENTER": 333.0607, "MEAN_ANOMALY": 178.6132, "EPHEMERIS_TYPE": 0, "CLASSIFICATION_TYPE": "U", "NORAD_CAT_ID": 33942, "ELEMENT_SET_NO": 999, "REV_AT_EPOCH": 88312, "BSTAR": 0.00019385, "MEAN_MOTION_DOT": 5.61e-06, "MEAN_MOTION_DDOT": 0}, "tle": {"line1": "1 33942U 93036EX  25359.12870068  .00000561  00000+0  19385-3 0  9998", "line2": "2 33942  74.0361 252.0128 0020816 333.0607 178.6132 14.38004818883120"}}, "geometry": {"type": "Point", "coordinates": [66.36331225779878, 17.358550715948283]}}, {"type": "Feature", "properties": {"norad_id": 33944, "name": "COSMOS 2251 DEB", "group": "cosmos-2251-debris", "lat": 6.428458367849944, "lon": -72.53466576715152, "alt_km": 691.1307509038716, "timestamp": "2025-12-25T09:48:52.682302+00:00", "meta": {"OBJECT_NAME": "COSMOS 2251 DEB", "OBJECT_ID": "1993-036EZ", "EPOCH": "2025-12-24T22:24:26.018208", "MEAN_MOTION": 14.37370487, "ECCENTRICITY": 0.0112724, "INCLINATION": 74.0407, "RA_OF_ASC_NODE": 286.4918, "ARG_OF_PERICENTER": 22.9901, "MEAN_ANOMALY": 45.6367, "EPHEMERIS_TYPE": 0, "CLASSIFICATION_TYPE": "U", "NORAD_CAT_ID": 33944, "ELEMENT_SET_NO": 999, "REV_AT_EPOCH": 88203, "BSTAR": 0.00037223, "MEAN_MOTION_DOT": 1.169e-05, "MEAN_MOTION_DDOT": 0}, "tle": {"line1": "1 33944U 93036EZ  25358.93363447  .00001169  00000+0  37223-3 0  9992", "line2": "2 33944  74.0407 286.4918 0112724  22.9901  45.6367 14.37370487882031"}}, "geometry": {"type": "Point", "coordinates": [-72.53466576715152, 6.428458367849944]}}, {"type": "Feature", "properties": {"norad_id": 33945, "name": "COSMOS 2251 DEB", "group": "cosmos-2251-debris", "lat": 33.13558534770558, "lon": -66.17335847830364, "alt_km": 759.864049447865, "timestamp": "2025-12-25T09:48:52.682312+00:00", "meta": {"OBJECT_NAME": "COSMOS 2251 DEB", "OBJECT_ID": "1993-036FA", "EPOCH": "2025-12-25T02:57:35.889984", "MEAN_MOTION": 14.34610317, "ECCENTRICITY": 0.0022447, "INCLINATION": 74.0303, "RA_OF_ASC_NODE": 283.5762, "ARG_OF_PERICENTER": 6.645, "MEAN_ANOMALY": 353.4995, "EPHEMERIS_TYPE": 0, "CLASSIFICATION_TYPE": "U", "NORAD_CAT_ID": 33945, "ELEMENT_SET_NO": 999, "REV_AT_EPOCH": 88193, "BSTAR": 0.00013917, "MEAN_MOTION_DOT": 3.68e-06, "MEAN_MOTION_DDOT": 0}, "tle": {"line1": "1 33945U 93036FA  25359.12333206  .00000368  00000+0  13917-3 0  9999", "line2": "2 33945  74.0303 283.5762 0022447   6.6450 353.4995 14.34610317881933"}}, "geometry": {"type": "Point", "coordinates": [-66.17335847830364, 33.13558534770558]}}, {"type": "Feature", "properties": {"norad_id": 33948, "name": "COSMOS 2251 DEB", "group": "cosmos-2251-debris", "lat": -64.42153407076081, "lon": -114.83916639593225, "alt_km": 772.578569889677, "timestamp": "2025-12-25T09:48:52.682322+00:00", "meta": {"OBJECT_NAME": "COSMOS 2251 DEB", "OBJECT_ID": "1993-036FD", "EPOCH": "2025-12-25T01:46:32.939040", "MEAN_MOTION": 14.35643318, "ECCENTRICITY": 0.0023272, "INCLINATION": 74.0361, "RA_OF_ASC_NODE": 282.5036, "ARG_OF_PERICENTER": 355.4381, "MEAN_ANOMALY": 4.6555, "EPHEMERIS_TYPE": 0, "CLASSIFICATION_TYPE": "U", "NORAD_CAT_ID": 33948, "ELEMENT_SET_NO": 999, "REV_AT_EPOCH": 88200, "BSTAR": 0.00019649, "MEAN_MOTION_DOT": 5.42e-06, "MEAN_MOTION_DDOT": 0}, "tle": {"line1": "1 33948U 93036FD  25359.07399235  .00000542  00000+0  19649-3 0  9992", "line2": "2 33948  74.0361 282.5036 0023272 355.4381   4.6555 14.35643318882002"}}, "geometry": {"type": "Point", "coordinates": [-114.83916639593225, -64.42153407076081]}}, {"type": "Feature", "properties": {"norad_id": 33971, "name": "COSMOS 2251 DEB", "group": "cosmos-2251-debris", "lat": -4.977635182727344, "lon": 51.7486764262325, "alt_km": 773.5042507980252, "timestamp": "2025-12-25T09:48:52.682332+00:00", "meta": {"OBJECT_NAME": "COSMOS 2251 DEB", "OBJECT_ID": "1993-036FE", "EPOCH": "2025-12-25T03:02:31.713216", "MEAN_MOTION": 14.39745425, "ECCENTRICITY": 0.0019006, "INCLINATION": 74.0238, "RA_OF_ASC_NODE": 230.8403, "ARG_OF_PERICENTER": 329.3481, "MEAN_ANOMALY": 193.8334, "EPHEMERIS_TYPE": 0, "CLASSIFICATION_TYPE": "U", "NORAD_CAT_ID": 33971, "ELEMENT_SET_NO": 999, "REV_AT_EPOCH": 88317, "BSTAR": 0.0002364, "MEAN_MOTION_DOT": 7.16e-06, "MEAN_MOTION_DDOT": 0}, "tle": {"line1": "1 33971U 93036FE  25359.12675594  .00000716  00000+0  23640-3 0  9998", "line2": "2 33971  74.0238 230.8403 0019006 329.3481 193.8334 14.39745425883177"}}, "geometry": {"type": "Point", "coordinates": [51.7486764262325, -4.977635182727344]}}, {"type": "Feature", "properties": {"norad_id": 33972, "name": "COSMOS 2251 DEB", "group": "cosmos-2251-debris", "lat": -33.506605838617936, "lon": 156.37724520683867, "alt_km": 688.6644642829124, "timestamp": "2025-12-25T09:48:52.682342+00:00", "meta": {"OBJECT_NAME": "COSMOS 2251 DEB", "OBJECT_ID": "1993-036FF", "EPOCH": "2025-12-22T11:54:25.691616", "MEAN_MOTION": 14.36292058, "ECCENTRICITY": 0.01238157, "INCLINATION": 73.9934, "RA_OF_ASC_NODE": 172.696, "ARG_OF_PERICENTER": 338.2339, "MEAN_ANOMALY": 51.7728, "EPHEMERIS_TYPE": 0, "CLASSIFICATION_TYPE": "U", "NORAD_CAT_ID": 33972, "ELEMENT_SET_NO": 999, "REV_AT_EPOCH": 87214, "BSTAR": 0.0012268858, "MEAN_MOTION_DOT": 3.888e-05, "MEAN_MOTION_DDOT": 0}, "tle": {"line1": "1 33972U 93036FF  25356.49613069  .00003888  00000+0  12269-2 0  9992", "line2": "2 33972  73.9934 172.6960 0123815 338.2339  51.7728 14.36292058872145"}}, "geometry": {"type": "Point", "coordinates": [156.37724520683867, -33.506605838617936]}}, {"type": "Feature", "properties": {"norad_id": 33973, "name": "COSMOS 2251 DEB", "group": "cosmos-2251-debris", "lat": 46.03953141515436, "lon": -118.06078085053977, "alt_km": 755.0176449191622, "timestamp": "2025-12-25T09:48:52.682352+00:00", "meta": {"OBJECT_NAME": "COSMOS 2251 DEB", "OBJECT_ID": "1993-036FG", "EPOCH": "2025-12-24T17:09:56.410272", "MEAN_MOTION": 14.45403322, "ECCENTRICITY": 0.00473769, "INCLINATION": 74.0086, "RA_OF_ASC_NODE": 80.5336, "ARG_OF_PERICENTER": 256.7581, "MEAN_ANOMALY": 226.9237, "EPHEMERIS_TYPE": 0, "CLASSIFICATION_TYPE": "U", "NORAD_CAT_ID": 33973, "ELEMENT_SET_NO": 999, "REV_AT_EPOCH": 88773, "BSTAR": 0.00014644554, "MEAN_MOTION_DOT": 4.94e-06, "MEAN_MOTION_DDOT": 0}, "tle": {"line1": "1 33973U 93036FG  25358.71523623  .00000494  00000+0  14645-3 0  9997", "line2": "2 33973  74.0086  80.5336 0047376 256.7581 226.9237 14.45403322887730"}}, "geometry": {"type": "Point", "coordinates": [-118.06078085053977, 46.03953141515436]}}, {"type": "Feature", "properties": {"norad_id": 33975, "name": "COSMOS 2251 DEB", "group": "cosmos-2251-debris", "lat": -8.908881741441201, "lon": -115.20521655970533, "alt_km": 757.0660967458161, "timestamp": "2025-12-25T09:48:52.682362+00:00", "meta": {"OBJECT_NAME": "COSMOS 2251 DEB", "OBJECT_ID": "1993-036FJ", "EPOCH": "2025-12-24T10:37:31.630080", "MEAN_MOTION": 14.00546977, "ECCENTRICITY": 0.01908754, "INCLINATION": 73.8016, "RA_OF_ASC_NODE": 63.881, "ARG_OF_PERICENTER": 194.9638, "MEAN_ANOMALY": 164.5802, "EPHEMERIS_TYPE": 0, "CLASSIFICATION_TYPE": "U", "NORAD_CAT_ID": 33975, "ELEMENT_SET_NO": 999, "REV_AT_EPOCH": 85993, "BSTAR": 0.00050046433, "MEAN_MOTION_DOT": 8.45e-06, "MEAN_MOTION_DDOT": 0}, "tle": {"line1": "1 33975U 93036FJ  25358.44272720  .00000845  00000+0  50046-3 0  9993", "line2": "2 33975  73.8016  63.8810 0190875 194.9638 164.5802 14.00546977859933"}}, "geometry": {"type": "Point", "coordinates": [-115.20521655970533, -8.908881741441201]}}]}